{
  "type": "FeatureCollection",
  "features": [
    {
      "type": "Feature",
      "properties": {},
      "geometry": {
        "type": "LineString",
        "coordinates": [
          [
            18.797607,
            47.987188
          ],
          [
            18.790741,
            47.988093
          ],
          [
            18.781128,
            47.986249
          ],
          [
            18.761902,
            47.977977
          ],
          [
            18.757782,
            47.971542
          ],
          [
            18.770142,
            47.96143
          ],
          [
            18.778381,
            47.960509
          ],
          [
            18.777008,
            47.950394
          ],
          [
            18.777008,
            47.939357
          ],
          [
            18.770142,
            47.931997
          ],
          [
            18.761902,
            47.920958
          ],
          [
            18.755035,
            47.924637
          ],
          [
            18.752289,
            47.916356
          ],
          [
            18.755035,
            47.911755
          ],
          [
            18.756409,
            47.910833
          ],
          [
            18.761902,
            47.904381
          ],
          [
            18.760529,
            47.889651
          ],
          [
            18.767395,
            47.870314
          ],
          [
            18.787994,
            47.86755
          ],
          [
            18.804474,
            47.858333
          ],
          [
            18.814087,
            47.819172
          ],
          [
            18.860092,
            47.814541
          ],
          [
            18.881378,
            47.810848
          ],
          [
            18.901291,
            47.800703
          ],
          [
            18.906097,
            47.78594
          ],
          [
            18.909874,
            47.772791
          ],
          [
            18.915024,
            47.768176
          ],
          [
            18.92601,
            47.764713
          ],
          [
            18.93631,
            47.764254
          ],
          [
            18.94455,
            47.767475
          ],
          [
            18.956909,
            47.776703
          ],
          [
            19.013214,
            47.728234
          ],
          [
            18.976135,
            47.676711
          ],
          [
            18.983688,
            47.646194
          ],
          [
            18.979912,
            47.631041
          ],
          [
            19.001541,
            47.620975
          ],
          [
            19.007721,
            47.607088
          ],
          [
            19.003944,
            47.601302
          ],
          [
            18.997765,
            47.596207
          ],
          [
            18.987465,
            47.586946
          ],
          [
            18.977165,
            47.574903
          ],
          [
            18.959484,
            47.577449
          ],
          [
            18.943691,
            47.578607
          ],
          [
            18.941116,
            47.575945
          ],
          [
            18.937168,
            47.574671
          ],
          [
            18.9291,
            47.572703
          ],
          [
            18.935623,
            47.561469
          ],
          [
            18.94146,
            47.550812
          ],
          [
            18.92704,
            47.544324
          ],
          [
            18.907642,
            47.538995
          ],
          [
            18.854942,
            47.537367
          ],
          [
            18.83194,
            47.533428
          ],
          [
            18.812714,
            47.524619
          ],
          [
            18.785591,
            47.486122
          ],
          [
            18.784561,
            47.456414
          ],
          [
            18.807907,
            47.400673
          ],
          [
            18.80928,
            47.356267
          ],
          [
            18.794518,
            47.346151
          ],
          [
            18.781128,
            47.334634
          ],
          [
            18.775463,
            47.329283
          ],
          [
            18.767567,
            47.32428
          ],
          [
            18.760529,
            47.320439
          ],
          [
            18.749886,
            47.313458
          ],
          [
            18.775635,
            47.292038
          ],
          [
            18.798637,
            47.274569
          ],
          [
            18.813744,
            47.264084
          ],
          [
            18.818893,
            47.252202
          ],
          [
            18.84,
            47.23
          ],
          [
            18.890945,
            47.208168
          ]
        ]
      }
    },
    {
      "type": "Feature",
      "properties": {},
      "geometry": {
        "type": "LineString",
        "coordinates": [
          [
            18.890945,
            47.208168
          ],
          [
            18.882065,
            47.195311
          ],
          [
            18.880005,
            47.180379
          ],
          [
            18.873482,
            47.162408
          ],
          [
            18.873825,
            47.142564
          ],
          [
            18.883781,
            47.12084
          ],
          [
            18.891678,
            47.0921
          ],
          [
            18.897514,
            47.079007
          ],
          [
            18.902664,
            47.07246
          ],
          [
            18.910561,
            47.067551
          ],
          [
            18.92704,
            47.060533
          ],
          [
            18.94249,
            47.051411
          ],
          [
            18.956566,
            47.042054
          ],
          [
            18.967896,
            47.031056
          ],
          [
            18.968239,
            47.016312
          ],
          [
            18.965836,
            47.00929
          ],
          [
            18.959999,
            47.005308
          ],
          [
            18.954334,
            46.999924
          ],
          [
            18.949356,
            46.993718
          ],
          [
            18.949184,
            46.985288
          ],
          [
            18.950386,
            46.97709
          ],
          [
            18.962746,
            46.948271
          ],
          [
            18.965836,
            46.935964
          ],
          [
            18.962746,
            46.924359
          ],
          [
            18.957596,
            46.902196
          ],
          [
            18.984032,
            46.897038
          ],
          [
            19.1,
            46.91
          ],
          [
            19.22,
            46.93
          ],
          [
            19.34,
            46.96
          ],
          [
            19.45,
            46.99
          ],
          [
            19.571457,
            47.002973
          ],
          [
            19.62,
            47.05
          ],
          [
            19.64,
            47.12
          ],
          [
            19.66,
            47.19
          ],
          [
            19.644928,
            47.25127
          ],
          [
            19.819336,
            47.313677
          ],
          [
            19.892807,
            47.295535
          ],
          [
            20.016575,
            47.309615
          ],
          [
            20.096741,
            47.335101
          ],
          [
            20.257416,
            47.324869
          ],
          [
            20.361786,
            47.402524
          ],
          [
            20.409164,
            47.421579
          ],
          [
            20.456543,
            47.45409
          ],
          [
            20.508728,
            47.472634
          ],
          [
            20.589752,
            47.521597
          ],
          [
            20.705109,
            47.591323
          ],
          [
            20.718842,
            47.638543
          ],
          [
            20.766907,
            47.64595
          ],
          [
            20.852051,
            47.684814
          ],
          [
            20.939941,
            47.705611
          ],
          [
            20.9935,
            47.751326
          ],
          [
            21.049805,
            47.781729
          ],
          [
            21.156921,
            47.813147
          ],
          [
            21.250305,
            47.793746
          ],
          [
            21.55,
            47.78
          ],
          [
            21.691132,
            47.747647
          ],
          [
            21.813354,
            47.661703
          ],
          [
            21.879272,
            47.626556
          ],
          [
            21.930084,
            47.596008
          ],
          [
            21.96579,
            47.575658
          ],
          [
            21.978149,
            47.564525
          ],
          [
            21.990509,
            47.554319
          ],
          [
            22.013855,
            47.532052
          ],
          [
            22.013855,
            47.485657
          ],
          [
            22.030334,
            47.446664
          ],
          [
            22.027588,
            47.405783
          ]
        ]
      }
    }
  ]
}