{
  "type": "FeatureCollection",
  "features": [
    {
      "type": "Feature",
      "properties": {
        "color": "#0066cc"
      },
      "geometry": {
        "type": "LineString",
        "coordinates": [
          [
            18.797607,
            47.987188
          ],
          [
            18.790741,
            47.988093
          ],
          [
            18.781128,
            47.986249
          ],
          [
            18.761902,
            47.977977
          ],
          [
            18.757782,
            47.971542
          ],
          [
            18.770142,
            47.96143
          ],
          [
            18.778381,
            47.960509
          ],
          [
            18.777008,
            47.950394
          ],
          [
            18.777008,
            47.939357
          ],
          [
            18.770142,
            47.931997
          ],
          [
            18.761902,
            47.920958
          ],
          [
            18.755035,
            47.924637
          ],
          [
            18.752289,
            47.916356
          ],
          [
            18.755035,
            47.911755
          ],
          [
            18.756409,
            47.910833
          ],
          [
            18.761902,
            47.904381
          ],
          [
            18.760529,
            47.889651
          ],
          [
            18.767395,
            47.870314
          ],
          [
            18.787994,
            47.86755
          ],
          [
            18.804474,
            47.858333
          ],
          [
            18.814087,
            47.819172
          ],
          [
            18.860092,
            47.814541
          ],
          [
            18.881378,
            47.810848
          ],
          [
            18.901291,
            47.800703
          ],
          [
            18.906097,
            47.78594
          ],
          [
            18.909874,
            47.772791
          ],
          [
            18.915024,
            47.768176
          ],
          [
            18.92601,
            47.764713
          ],
          [
            18.93631,
            47.764254
          ],
          [
            18.94455,
            47.767475
          ],
          [
            18.956909,
            47.776703
          ],
          [
            19.013214,
            47.728234
          ],
          [
            18.976135,
            47.676711
          ],
          [
            18.983688,
            47.646194
          ],
          [
            18.979912,
            47.631041
          ],
          [
            19.001541,
            47.620975
          ],
          [
            19.007721,
            47.607088
          ],
          [
            19.003944,
            47.601302
          ],
          [
            18.997765,
            47.596207
          ],
          [
            18.987465,
            47.586946
          ],
          [
            18.977165,
            47.574903
          ],
          [
            18.959484,
            47.577449
          ],
          [
            18.943691,
            47.578607
          ],
          [
            18.941116,
            47.575945
          ],
          [
            18.937168,
            47.574671
          ],
          [
            18.9291,
            47.572703
          ],
          [
            18.935623,
            47.561469
          ],
          [
            18.94146,
            47.550812
          ],
          [
            18.92704,
            47.544324
          ],
          [
            18.907642,
            47.538995
          ],
          [
            18.854942,
            47.537367
          ],
          [
            18.83194,
            47.533428
          ],
          [
            18.812714,
            47.524619
          ],
          [
            18.785591,
            47.486122
          ],
          [
            18.784561,
            47.456414
          ],
          [
            18.807907,
            47.400673
          ],
          [
            18.80928,
            47.356267
          ],
          [
            18.794518,
            47.346151
          ],
          [
            18.781128,
            47.334634
          ],
          [
            18.775463,
            47.329283
          ],
          [
            18.767567,
            47.32428
          ],
          [
            18.760529,
            47.320439
          ],
          [
            18.749886,
            47.313458
          ],
          [
            18.775635,
            47.292038
          ],
          [
            18.798637,
            47.274569
          ],
          [
            18.813744,
            47.264084
          ],
          [
            18.818893,
            47.252202
          ],
          [
            18.84,
            47.23
          ],
          [
            18.890945,
            47.208168
          ]
        ]
      }
    },
    {
      "type": "Feature",
      "properties": {
        "color": "#0066cc"
      },
      "geometry": {
        "type": "LineString",
        "coordinates": [
          [
            18.890945,
            47.208168
          ],
          [
            18.882065,
            47.195311
          ],
          [
            18.880005,
            47.180379
          ],
          [
            18.873482,
            47.162408
          ],
          [
            18.873825,
            47.142564
          ],
          [
            18.883781,
            47.12084
          ],
          [
            18.891678,
            47.0921
          ],
          [
            18.897514,
            47.079007
          ],
          [
            18.902664,
            47.07246
          ],
          [
            18.910561,
            47.067551
          ],
          [
            18.92704,
            47.060533
          ],
          [
            18.94249,
            47.051411
          ],
          [
            18.956566,
            47.042054
          ],
          [
            18.967896,
            47.031056
          ],
          [
            18.968239,
            47.016312
          ],
          [
            18.965836,
            47.00929
          ],
          [
            18.959999,
            47.005308
          ],
          [
            18.954334,
            46.999924
          ],
          [
            18.949356,
            46.993718
          ],
          [
            18.949184,
            46.985288
          ],
          [
            18.950386,
            46.97709
          ],
          [
            18.962746,
            46.948271
          ],
          [
            18.965836,
            46.935964
          ],
          [
            18.962746,
            46.924359
          ],
          [
            18.957596,
            46.902196
          ],
          [
            18.984032,
            46.897038
          ],
          [
            19.1,
            46.91
          ],
          [
            19.22,
            46.93
          ],
          [
            19.34,
            46.96
          ],
          [
            19.45,
            46.99
          ],
          [
            19.571457,
            47.002973
          ],
          [
            19.62,
            47.05
          ],
          [
            19.64,
            47.12
          ],
          [
            19.66,
            47.19
          ],
          [
            19.644928,
            47.25127
          ],
          [
            19.819336,
            47.313677
          ],
          [
            19.892807,
            47.295535
          ],
          [
            20.016575,
            47.309615
          ],
          [
            20.096741,
            47.335101
          ],
          [
            20.257416,
            47.324869
          ],
          [
            20.361786,
            47.402524
          ],
          [
            20.409164,
            47.421579
          ],
          [
            20.456543,
            47.45409
          ],
          [
            20.508728,
            47.472634
          ],
          [
            20.589752,
            47.521597
          ],
          [
            20.705109,
            47.591323
          ],
          [
            20.718842,
            47.638543
          ],
          [
            20.766907,
            47.64595
          ],
          [
            20.852051,
            47.684814
          ],
          [
            20.939941,
            47.705611
          ],
          [
            20.9935,
            47.751326
          ],
          [
            21.049805,
            47.781729
          ],
          [
            21.156921,
            47.813147
          ],
          [
            21.250305,
            47.793746
          ],
          [
            21.55,
            47.78
          ],
          [
            21.691132,
            47.747647
          ],
          [
            21.813354,
            47.661703
          ],
          [
            21.879272,
            47.626556
          ],
          [
            21.930084,
            47.596008
          ],
          [
            21.96579,
            47.575658
          ],
          [
            21.978149,
            47.564525
          ],
          [
            21.990509,
            47.554319
          ],
          [
            22.013855,
            47.532052
          ],
          [
            22.013855,
            47.485657
          ],
          [
            22.030334,
            47.446664
          ],
          [
            22.027588,
            47.405783
          ]
        ]
      }
    },
    {
      "type": "Feature",
      "properties": {
        "color": "#d43f3a"
      },
      "geometry": {
        "type": "LineString",
        "coordinates": [
          [
            18.795733,
            47.500521
          ],
          [
            18.71315,
            47.510296
          ],
          [
            18.663025,
            47.54506
          ],
          [
            18.682165,
            47.586258
          ],
          [
            18.701649,
            47.592971
          ],
          [
            18.682251,
            47.619071
          ],
          [
            18.671265,
            47.631053
          ],
          [
            18.679676,
            47.648282
          ],
          [
            18.677959,
            47.660311
          ],
          [
            18.660107,
            47.677068
          ],
          [
            18.636761,
            47.695676
          ],
          [
            18.617535,
            47.707166
          ],
          [
            18.619423,
            47.727097
          ],
          [
            18.623543,
            47.732638
          ],
          [
            18.616676,
            47.748797
          ],
          [
            18.621526,
            47.754705
          ]
        ]
      }
    },
    {
      "type": "Feature",
      "properties": {
        "color": "#d43f3a"
      },
      "geometry": {
        "type": "LineString",
        "coordinates": [
          [
            18.957596,
            46.902196
          ],
          [
            18.910217,
            46.910909
          ],
          [
            18.779755,
            46.898715
          ],
          [
            18.563805,
            46.929662
          ],
          [
            18.341675,
            46.906714
          ],
          [
            18.183403,
            47.003564
          ],
          [
            18.177052,
            46.993902
          ],
          [
            18.169984,
            46.995247
          ],
          [
            18.170003,
            46.993789
          ],
          [
            18.169614,
            46.993818
          ],
          [
            18.169547,
            46.994473
          ],
          [
            18.166645,
            46.994511
          ],
          [
            17.929688,
            46.903463
          ],
          [
            17.890892,
            46.880156
          ],
          [
            17.410583,
            46.734425
          ],
          [
            17.266731,
            46.723623
          ],
          [
            17.262268,
            46.70574
          ],
          [
            17.257118,
            46.687839
          ],
          [
            17.245102,
            46.677726
          ],
          [
            17.221756,
            46.670886
          ],
          [
            17.220726,
            46.654403
          ],
          [
            17.218666,
            46.642837
          ],
          [
            17.220726,
            46.636708
          ],
          [
            17.220383,
            46.630603
          ],
          [
            17.215576,
            46.615488
          ],
          [
            17.215919,
            46.59901
          ],
          [
            17.220383,
            46.565942
          ],
          [
            17.222443,
            46.530762
          ],
          [
            17.227249,
            46.522021
          ],
          [
            17.226906,
            46.513271
          ],
          [
            17.220039,
            46.501694
          ],
          [
            17.214546,
            46.495313
          ],
          [
            17.212915,
            46.494109
          ],
          [
            17.210383,
            46.494109
          ],
          [
            17.20562,
            46.493695
          ],
          [
            17.204247,
            46.486565
          ],
          [
            17.196007,
            46.486091
          ],
          [
            17.191544,
            46.4868
          ],
          [
            17.194633,
            46.481129
          ],
          [
            17.188454,
            46.474044
          ],
          [
            17.19429,
            46.46529
          ],
          [
            17.19326,
            46.445426
          ],
          [
            17.191887,
            46.44093
          ],
          [
            17.18811,
            46.434308
          ],
          [
            17.188797,
            46.428862
          ],
          [
            17.181587,
            46.432657
          ],
          [
            17.142105,
            46.427453
          ],
          [
            17.138329,
            46.417515
          ],
          [
            17.140045,
            46.406628
          ],
          [
            17.128716,
            46.405443
          ],
          [
            17.114382,
            46.406677
          ],
          [
            17.113695,
            46.414724
          ],
          [
            17.103653,
            46.41562
          ],
          [
            17.098331,
            46.41934
          ],
          [
            17.088547,
            46.420464
          ],
          [
            17.08477,
            46.419517
          ],
          [
            17.08168,
            46.416804
          ],
          [
            17.079105,
            46.41147
          ],
          [
            17.078247,
            46.405197
          ],
          [
            17.041855,
            46.390066
          ],
          [
            17.048378,
            46.380097
          ],
          [
            17.045116,
            46.372872
          ],
          [
            17.047262,
            46.369674
          ],
          [
            17.04915,
            46.368904
          ],
          [
            17.051897,
            46.369437
          ],
          [
            17.054214,
            46.36872
          ],
          [
            17.056274,
            46.367542
          ],
          [
            17.054558,
            46.365587
          ],
          [
            17.057433,
            46.355577
          ],
          [
            17.059085,
            46.351045
          ],
          [
            17.059343,
            46.348646
          ],
          [
            17.059021,
            46.346217
          ],
          [
            17.058764,
            46.342928
          ],
          [
            17.058485,
            46.339684
          ],
          [
            17.054214,
            46.339815
          ],
          [
            17.050309,
            46.339788
          ],
          [
            17.046661,
            46.338632
          ],
          [
            17.044451,
            46.336543
          ],
          [
            17.044773,
            46.334929
          ],
          [
            17.043314,
            46.33164
          ],
          [
            17.040482,
            46.330335
          ],
          [
            17.037692,
            46.329032
          ],
          [
            17.038679,
            46.326424
          ],
          [
            17.038851,
            46.323224
          ],
          [
            17.039623,
            46.320201
          ],
          [
            17.042112,
            46.316288
          ],
          [
            17.037048,
            46.313857
          ],
          [
            17.033057,
            46.313235
          ],
          [
            17.030053,
            46.313057
          ],
          [
            17.028379,
            46.311723
          ],
          [
            17.027907,
            46.310952
          ],
          [
            17.026834,
            46.310715
          ],
          [
            17.027607,
            46.30944
          ],
          [
            17.024775,
            46.308314
          ],
          [
            17.019882,
            46.307454
          ],
          [
            17.017994,
            46.307454
          ],
          [
            17.016792,
            46.305972
          ],
          [
            17.013617,
            46.304519
          ],
          [
            17.012801,
            46.304993
          ],
          [
            17.011514,
            46.305823
          ],
          [
            17.010355,
            46.306031
          ],
          [
            17.009926,
            46.306535
          ],
          [
            17.008038,
            46.30695
          ],
          [
            17.007136,
            46.309351
          ],
          [
            17.006021,
            46.311218
          ],
          [
            17.00366,
            46.311248
          ],
          [
            17.001429,
            46.310655
          ],
          [
            16.999969,
            46.311753
          ],
          [
            16.999454,
            46.312968
          ],
          [
            16.99482,
            46.311783
          ],
          [
            16.992459,
            46.312286
          ],
          [
            16.990356,
            46.313257
          ],
          [
            16.98894,
            46.31451
          ],
          [
            16.985893,
            46.315073
          ],
          [
            16.983361,
            46.312642
          ],
          [
            16.979756,
            46.306743
          ],
          [
            16.978598,
            46.305142
          ],
          [
            16.976624,
            46.30446
          ],
          [
            16.974821,
            46.304697
          ],
          [
            16.973104,
            46.304638
          ],
          [
            16.970015,
            46.305142
          ],
          [
            16.966066,
            46.30449
          ],
          [
            16.962547,
            46.302592
          ],
          [
            16.959457,
            46.297789
          ],
          [
            16.956968,
            46.29601
          ],
          [
            16.954222,
            46.294231
          ],
          [
            16.950359,
            46.292333
          ],
          [
            16.945982,
            46.291503
          ],
          [
            16.94581,
            46.293519
          ],
          [
            16.944523,
            46.293697
          ],
          [
            16.942549,
            46.29251
          ],
          [
            16.938858,
            46.290727
          ],
          [
            16.937313,
            46.291977
          ],
          [
            16.937656,
            46.293163
          ],
          [
            16.938343,
            46.295239
          ],
          [
            16.93903,
            46.298382
          ],
          [
            16.937742,
            46.298323
          ],
          [
            16.937485,
            46.299501
          ],
          [
            16.939287,
            46.302177
          ],
          [
            16.934652,
            46.302474
          ],
          [
            16.934566,
            46.304193
          ],
          [
            16.936798,
            46.308522
          ],
          [
            16.936541,
            46.31196
          ],
          [
            16.936283,
            46.315221
          ],
          [
            16.930962,
            46.317413
          ],
          [
            16.928988,
            46.31771
          ],
          [
            16.927013,
            46.317325
          ],
          [
            16.922507,
            46.315695
          ],
          [
            16.920147,
            46.314954
          ],
          [
            16.917701,
            46.314598
          ],
          [
            16.914847,
            46.314643
          ],
          [
            16.912487,
            46.314998
          ],
          [
            16.911113,
            46.314628
          ],
          [
            16.908174,
            46.313739
          ],
          [
            16.904869,
            46.313309
          ],
          [
            16.90311,
            46.313413
          ],
          [
            16.902466,
            46.31365
          ],
          [
            16.901264,
            46.313679
          ],
          [
            16.900749,
            46.313176
          ],
          [
            16.899548,
            46.312968
          ],
          [
            16.898303,
            46.312672
          ],
          [
            16.897273,
            46.312523
          ],
          [
            16.896629,
            46.312909
          ],
          [
            16.896544,
            46.313383
          ],
          [
            16.895471,
            46.313739
          ],
          [
            16.895514,
            46.315102
          ],
          [
            16.893711,
            46.317532
          ],
          [
            16.890385,
            46.317296
          ],
          [
            16.886287,
            46.320734
          ],
          [
            16.886137,
            46.323504
          ],
          [
            16.885149,
            46.324023
          ],
          [
            16.883755,
            46.324407
          ],
          [
            16.882918,
            46.324379
          ],
          [
            16.882403,
            46.324112
          ],
          [
            16.881266,
            46.324024
          ],
          [
            16.88015,
            46.324438
          ],
          [
            16.879313,
            46.32475
          ],
          [
            16.877103,
            46.324335
          ],
          [
            16.875751,
            46.324646
          ],
          [
            16.875772,
            46.323535
          ],
          [
            16.877146,
            46.323459
          ],
          [
            16.876888,
            46.320676
          ]
        ]
      }
    }
  ]
}